NORAD_CAT_ID,OBJECT_NAME,OBJECT_TYPE,EPOCH,MEAN_MOTION,ECCENTRICITY,INCLINATION,RA_OF_ASC_NODE,ARG_OF_PERICENTER,MEAN_ANOMALY,BSTAR,MEAN_MOTION_DOT,MEAN_MOTION_DDOT,TLE_LINE0,TLE_LINE1,TLE_LINE2,SEMIMAJOR_AXIS,PERIOD,APOGEE,PERIGEE,DECAYED
52557.0,STARLINK-3943,PAYLOAD,2024-01-10 09:37:05,15.08836801,0.0001555,53.2189,72.3823,112.2961,247.8196,2.6789e-05,1.38e-06,0.0,0 STARLINK-3943,1 52557U 22051AA  24010.40075283  .00000138  00000-0  26789-4 0  9998,2 52557  53.2189  72.3823 0001555 112.2961 247.8196 15.08836801 92296,6917.89,95.438,540.831,538.679,0.0
52557.0,STARLINK-3943,PAYLOAD,2024-01-10 14:23:14,15.08841191,0.0001529,53.2182,71.485,112.5996,247.5158,4.0974e-05,3.64e-06,0.0,0 STARLINK-3943,1 52557U 22051AA  24010.59946932  .00000364  00000-0  40974-4 0  9999,2 52557  53.2182  71.4850 0001529 112.5996 247.5158 15.08841191 92395,6917.877,95.437,540.799,538.684,0.0
52557.0,STARLINK-3943,PAYLOAD,2024-01-11 11:03:16,15.08833592,0.0001778,53.2188,67.6166,67.7701,292.3479,-2.9107e-05,-7.51e-06,0.0,0 STARLINK-3943,1 52557U 22051AA  24011.46060472 -.00000751  00000-0 -29107-4 0  9999,2 52557  53.2188  67.6166 0001778  67.7701 292.3479 15.08833592 92524,6917.9,95.438,540.995,538.535,0.0
52557.0,STARLINK-3943,PAYLOAD,2024-01-11 14:14:02,15.0883361,0.0001795,53.2181,67.0194,116.0957,244.022,-3.9642e-05,-9.19e-06,0.0,0 STARLINK-3943,1 52557U 22051AA  24011.59308258 -.00000919  00000-0 -39642-4 0  9991,2 52557  53.2181  67.0194 0001795 116.0957 244.0220 15.08833610 92475,6917.9,95.438,541.007,538.523,0.0
52557.0,STARLINK-3943,PAYLOAD,2024-01-12 10:54:02,15.08842706,0.0001457,53.217,63.1586,88.1707,271.9452,9.9808e-05,1.301e-05,0.0,0 STARLINK-3943,1 52557U 22051AA  24012.45419568  .00001301  00000-0  99808-4 0  9998,2 52557  53.2170  63.1586 0001457  88.1707 271.9452 15.08842706 92676,6917.872,95.437,540.745,538.729,0.0
52557.0,STARLINK-3943,PAYLOAD,2024-01-13 09:09:26,15.08851171,0.0001556,53.2168,58.9966,83.2967,276.8202,0.00011103,1.48e-05,0.0,0 STARLINK-3943,1 52557U 22051AA  24013.38155201  .00001480  00000-0  11103-3 0  9991,2 52557  53.2168  58.9966 0001556  83.2967 276.8202 15.08851171 92742,6917.846,95.437,540.788,538.635,0.0
52557.0,STARLINK-3943,PAYLOAD,2024-01-14 09:00:13,15.08843435,0.0001814,53.2174,54.5358,127.3708,232.745,3.4488e-05,2.61e-06,0.0,0 STARLINK-3943,1 52557U 22051AA  24014.37515421  .00000261  00000-0  34488-4 0  9993,2 52557  53.2174  54.5358 0001814 127.3708 232.7450 15.08843435 92960,6917.87,95.437,540.99,538.48,0.0
52557.0,STARLINK-3943,PAYLOAD,2024-01-15 12:01:46,15.08821974,0.0001992,53.2193,49.4743,99.2305,260.8912,0.00040599,6.176e-05,0.0,0 STARLINK-3943,1 52557U 22051AA  24015.50123599  .00006176  00000-0  40599-3 0  9990,2 52557  53.2193  49.4743 0001992  99.2305 260.8912 15.08821974 93138,6917.935,95.439,541.179,538.422,0.0
52557.0,STARLINK-3943,PAYLOAD,2024-01-16 02:20:16,15.08825155,0.000142,53.2191,46.8074,76.4509,283.6641,-4.74e-05,-1.042e-05,0.0,0 STARLINK-3943,1 52557U 22051AA  24016.09740904 -.00001042  00000-0 -47400-4 0  9998,2 52557  53.2191  46.8074 0001420  76.4509 283.6641 15.08825155 93220,6917.926,95.438,540.773,538.808,0.0
52557.0,STARLINK-3943,PAYLOAD,2024-01-16 08:41:48,15.08830103,0.000165,53.2184,45.6191,97.4141,262.7039,1.1613e-05,-1.03e-06,0.0,0 STARLINK-3943,1 52557U 22051AA  24016.36236586 -.00000103  00000-0  11613-4 0  9997,2 52557  53.2184  45.6191 0001650  97.4141 262.7039 15.08830103 93261,6917.911,95.438,540.917,538.634,0.0
52557.0,STARLINK-3943,PAYLOAD,2024-01-17 00:35:39,15.08841463,0.0001436,53.217,42.6397,90.7468,269.3689,-1.621e-05,-5.46e-06,0.0,0 STARLINK-3943,1 52557U 22051AA  24017.02476308 -.00000546  00000-0 -16210-4 0  9999,2 52557  53.2170  42.6397 0001436  90.7468 269.3689 15.08841463 93367,6917.876,95.437,540.734,538.748,0.0
52557.0,STARLINK-3943,PAYLOAD,2024-01-17 08:32:34,15.08847576,0.0001656,53.2176,41.1583,102.6364,257.4814,0.00011834,1.596e-05,0.0,0 STARLINK-3943,1 52557U 22051AA  24017.35595775  .00001596  00000-0  11834-3 0  9995,2 52557  53.2176  41.1583 0001656 102.6364 257.4814 15.08847576 93411,6917.857,95.437,540.868,538.577,0.0
52557.0,STARLINK-3943,PAYLOAD,2024-01-17 22:51:03,15.0883566,0.000169,53.2178,38.482,102.4258,257.6923,0.00017204,2.451e-05,0.0,0 STARLINK-3943,1 52557U 22051AA  24017.95212489  .00002451  00000-0  17204-3 0  9997,2 52557  53.2178  38.4820 0001690 102.4258 257.6923 15.08835660 93508,6917.894,95.438,540.928,538.59,0.0
52557.0,STARLINK-3943,PAYLOAD,2024-01-18 11:34:08,15.08843515,0.0001661,53.2172,36.0961,106.1716,253.9459,0.00016023,2.263e-05,0.0,0 STARLINK-3943,1 52557U 22051AA  24018.48204068  .00002263  00000-0  16023-3 0  9999,2 52557  53.2172  36.0961 0001661 106.1716 253.9459 15.08843515 93512,6917.87,95.437,540.884,538.586,0.0
52557.0,STARLINK-3943,PAYLOAD,2024-01-19 00:17:14,15.08830442,0.0001631,53.2183,33.7145,95.7941,264.3237,0.00015545,2.186e-05,0.0,0 STARLINK-3943,1 52557U 22051AA  24019.01196846  .00002186  00000-0  15545-3 0  9995,2 52557  53.2183  33.7145 0001631  95.7941 264.3237 15.08830442 93663,6917.91,95.438,540.903,538.646,0.0
52557.0,STARLINK-3943,PAYLOAD,2024-01-19 08:14:09,15.08841824,0.0001812,53.2188,32.2313,60.7748,299.3425,9.7323e-06,-1.33e-06,0.0,0 STARLINK-3943,1 52557U 22051AA  24019.34316478 -.00000133  00000-0  97323-5 0  9993,2 52557  53.2188  32.2313 0001812  60.7748 299.3425 15.08841824 93648,6917.875,95.437,540.993,538.486,0.0
52557.0,STARLINK-3943,PAYLOAD,2024-01-20 08:04:56,15.0884506,0.0001769,53.2179,27.7725,83.8483,276.2711,0.00017281,2.464e-05,0.0,0 STARLINK-3943,1 52557U 22051AA  24020.33676488  .00002464  00000-0  17281-3 0  9995,2 52557  53.2179  27.7725 0001769  83.8483 276.2711 15.08845060 93791,6917.865,95.437,540.954,538.506,0.0
52557.0,STARLINK-3943,PAYLOAD,2024-01-20 23:58:48,15.08838889,0.0002066,53.2189,24.8026,61.7197,298.4003,0.00015314,2.15e-05,0.0,0 STARLINK-3943,1 52557U 22051AA  24020.99916978  .00002150  00000-0  15314-3 0  9995,2 52557  53.2189  24.8026 0002066  61.7197 298.4003 15.08838889 93962,6917.884,95.438,541.178,538.32,0.0
52557.0,STARLINK-3943,PAYLOAD,2024-01-21 06:20:20,15.08842091,0.0001679,53.2183,23.6087,82.6496,277.4687,0.00013852,1.917e-05,0.0,0 STARLINK-3943,1 52557U 22051AA  24021.26412825  .00001917  00000-0  13852-3 0  9993,2 52557  53.2183  23.6087 0001679  82.6496 277.4687 15.08842091 93935,6917.874,95.437,540.901,538.577,0.0
52557.0,STARLINK-3943,PAYLOAD,2024-01-22 03:00:21,15.0884479,0.0001605,53.218,19.7438,79.8148,280.3025,0.00011031,1.468e-05,0.0,0 STARLINK-3943,1 52557U 22051AA  24022.12524741  .00001468  00000-0  11031-3 0  9998,2 52557  53.2180  19.7438 0001605  79.8148 280.3025 15.08844790 94139,6917.866,95.437,540.841,538.62,0.0
52557.0,STARLINK-3943,PAYLOAD,2024-01-22 06:11:07,15.08849095,0.0001634,53.2176,19.1486,80.2283,279.8894,0.00017485,2.496e-05,0.0,0 STARLINK-3943,1 52557U 22051AA  24022.25772557  .00002496  00000-0  17485-3 0  9993,2 52557  53.2176  19.1486 0001634  80.2283 279.8894 15.08849095 94083,6917.853,95.437,540.848,538.587,0.0
52557.0,STARLINK-3943,PAYLOAD,2024-01-22 09:21:53,15.08853092,0.0001576,53.2169,18.5526,89.853,270.2642,0.00025902,3.838e-05,0.0,0 STARLINK-3943,1 52557U 22051AA  24022.39020268  .00003838  00000-0  25902-3 0  9997,2 52557  53.2169  18.5526 0001576  89.8530 270.2642 15.08853092 94176,6917.84,95.437,540.796,538.615,0.0
52557.0,STARLINK-3943,PAYLOAD,2024-01-23 02:51:10,15.08794591,0.0002098,53.2154,15.2753,119.1131,241.0072,0.0014715,0.0002318,0.0,0 STARLINK-3943,1 52557U 22051AA  24023.11887327  .00023180  00000-0  14715-2 0  9996,2 52557  53.2154  15.2753 0002098 119.1131 241.0072 15.08794591 94283,6918.019,95.44,541.336,538.433,0.0
52557.0,STARLINK-3943,PAYLOAD,2024-01-23 06:01:54,15.08847274,0.0001532,53.217,14.6885,91.7654,268.3514,0.00018872,2.717e-05,0.0,0 STARLINK-3943,1 52557U 22051AA  24023.25132653  .00002717  00000-0  18872-3 0  9998,2 52557  53.2170  14.6885 0001532  91.7654 268.3514 15.08847274 94300,6917.858,95.437,540.783,538.663,0.0
52557.0,STARLINK-3943,PAYLOAD,2024-01-24 02:41:55,15.08842744,0.0001852,53.2184,10.8195,111.3242,248.7948,6.5837e-05,7.6e-06,0.0,0 STARLINK-3943,1 52557U 22051AA  24024.11244613  .00000760  00000-0  65837-4 0  9994,2 52557  53.2184  10.8195 0001852 111.3242 248.7948 15.08842744 94438,6917.872,95.437,541.018,538.456,0.0
52557.0,STARLINK-3943,PAYLOAD,2024-01-24 05:52:41,15.08846587,0.0001762,53.2187,10.2249,104.6918,255.4269,0.00010336,1.358e-05,0.0,0 STARLINK-3943,1 52557U 22051AA  24024.24492547  .00001358  00000-0  10336-3 0  9996,2 52557  53.2187  10.2249 0001762 104.6918 255.4269 15.08846587 94384,6917.86,95.437,540.944,538.506,0.0
52557.0,STARLINK-3943,PAYLOAD,2024-01-25 04:08:08,15.0878701,0.0002082,53.2189,6.0619,108.0262,252.0957,0.0016635,0.00026248,0.0,0 STARLINK-3943,1 52557U 22051AA  24025.17232116  .00026248  00000-0  16635-2 0  9995,2 52557  53.2189   6.0619 0002082 108.0262 252.0957 15.08787010 94591,6918.042,95.441,541.348,538.467,0.0
52557.0,STARLINK-3943,PAYLOAD,2024-01-25 08:54:14,15.08849811,0.0001544,53.2171,5.1662,90.1331,269.9838,0.00018738,2.696e-05,0.0,0 STARLINK-3943,1 52557U 22051AA  24025.37100400  .00002696  00000-0  18738-3 0  9995,2 52557  53.2171   5.1662 0001544  90.1331 269.9838 15.08849811 94627,6917.85,95.437,540.784,538.647,0.0
52557.0,STARLINK-3943,PAYLOAD,2024-01-26 03:58:53,15.08835157,0.0001767,53.2195,1.6061,103.7655,256.3534,1.9035e-05,1.5e-07,0.0,0 STARLINK-3943,1 52557U 22051AA  24026.16589368  .00000015  00000-0  19035-4 0  9992,2 52557  53.2195   1.6061 0001767 103.7655 256.3534 15.08835157 94748,6917.895,95.438,540.983,538.538,0.0
52557.0,STARLINK-3943,PAYLOAD,2024-01-26 05:34:16,15.0883681,0.0001806,53.2197,1.3084,99.8043,260.3153,4.7875e-05,4.74e-06,0.0,0 STARLINK-3943,1 52557U 22051AA  24026.23213346  .00000474  00000-0  47875-4 0  9992,2 52557  53.2197   1.3084 0001806  99.8043 260.3153 15.08836810 94684,6917.89,95.438,541.005,538.506,0.0
